EUTELSAT 65 WEST A      
1 41382U 16014A   26115.91069284 -.00000290  00000+0  00000+0 0  9994
2 41382   0.0584  28.7157 0002225 355.6626  92.1917  1.00273042 37009
IRNSS-1F                
1 41384U 16015A   26115.64482998  .00000149  00000+0  00000+0 0  9990
2 41384   5.2165  97.9889 0017081 191.2002 189.0583  1.00273264 37147
BEIDOU-2 IGSO-6         
1 41434U 16021A   26112.85559397 -.00000169  00000+0  00000+0 0  9994
2 41434  60.1522  38.5901 0055866 232.0601 343.5038  1.00270364 36923
IRNSS-1G                
1 41469U 16027A   26115.87793270 -.00000342  00000+0  00000+0 0  9996
2 41469   5.0672  98.7029 0005880 345.3501 215.4963  1.00276207 36658
JCSAT-2B                
1 41471U 16028A   26115.88278605  .00000000  00000+0  00000+0 0  9991
2 41471   0.0171 234.3707 0001317 173.0526 278.2828  1.00274882 36604
BREEZE-M DEB            
1 41544U 15075E   26115.00760512 -.00000128  00000+0  00000+0 0  9992
2 41544   8.2796  60.1528 0319399 173.6772 186.6959  1.05680128 39671
BREEZE-M DEB            
1 41547U 15075H   26115.41063089 -.00000274  00000+0  00000+0 0  9997
2 41547   8.5287  62.4938 0266240 138.1456 223.8782  1.03192545 38736
BREEZE-M DEB            
1 41548U 15075J   26114.83499721 -.00000311  00000+0  00000+0 0  9991
2 41548   8.5723  56.4013 0369143 134.6989 228.3109  1.02195179 38724
THAICOM 8               
1 41552U 16031A   26115.95808405 -.00000135  00000+0  00000+0 0  9990
2 41552   0.0636  42.1502 0004212 345.2983 249.9660  1.00271797 36190
INTELSAT 31 (IS-31)     
1 41581U 16035A   26115.90479948 -.00000164  00000+0  00000+0 0  9999
2 41581   0.0111 234.1895 0002225  40.3457 170.0615  1.00270975 36156
BREEZE-M R/B            
1 41582U 16035B   26115.56708040 -.00000283  00000+0  00000+0 0  9992
2 41582  31.6820 299.8700 7915784 140.7775 317.5710  1.12665337 40641
DELTA 4 R/B             
1 41585U 16036B   26114.86719501 -.00000114  00000+0  00000+0 0  9995
2 41585   5.5613 358.2458 0228690 253.5791 103.7557  1.04079469 25172
BEIDOU-2 G7             
1 41586U 16037A   26115.87411934 -.00000365  00000+0  00000+0 0  9996
2 41586   1.5927  68.8025 0007675 354.2855 215.9313  1.00265627  6364
ABS-2A (MONGOLSAT-1)    
1 41588U 16038A   26115.90962685  .00000000  00000+0  00000+0 0  9992
2 41588   0.0161 242.0712 0001717  92.3590 281.6651  1.00268606 36184
EUTELSAT 117 WEST B     
1 41589U 16038B   26115.90037946 -.00000025  00000+0  00000+0 0  9994
2 41589   0.0060 101.7562 0000380 194.5803 124.7207  1.00271646 36131
FALCON 9 R/B            
1 41590U 16038C   26113.63322007  .00000548  00000+0  11787-2 0  9995
2 41590  23.7652 333.5265 7965463 289.1157   6.0051  1.45738929 45274
BRISAT                  
1 41591U 16039A   26115.77614311 -.00000210  00000+0  00000+0 0  9996
2 41591   0.0155 257.2999 0002079 128.5284 257.8682  1.00271581 36084
