[{"OBJECT_NAME":"EUTELSAT 65 WEST A","OBJECT_ID":"2016-014A","EPOCH":"2026-04-25T21:51:23.861376","MEAN_MOTION":1.00273042,"ECCENTRICITY":0.00022253,"INCLINATION":0.0584,"RA_OF_ASC_NODE":28.7157,"ARG_OF_PERICENTER":355.6626,"MEAN_ANOMALY":92.1917,"EPHEMERIS_TYPE":0,"CLASSIFICATION_TYPE":"U","NORAD_CAT_ID":41382,"ELEMENT_SET_NO":999,"REV_AT_EPOCH":3700,"BSTAR":0,"MEAN_MOTION_DOT":-2.9e-6,"MEAN_MOTION_DDOT":0},{"OBJECT_NAME":"IRNSS-1F","OBJECT_ID":"2016-015A","EPOCH":"2026-04-25T15:28:33.310272","MEAN_MOTION":1.00273264,"ECCENTRICITY":0.00170813,"INCLINATION":5.2165,"RA_OF_ASC_NODE":97.9889,"ARG_OF_PERICENTER":191.2002,"MEAN_ANOMALY":189.0583,"EPHEMERIS_TYPE":0,"CLASSIFICATION_TYPE":"U","NORAD_CAT_ID":41384,"ELEMENT_SET_NO":999,"REV_AT_EPOCH":3714,"BSTAR":0,"MEAN_MOTION_DOT":1.49e-6,"MEAN_MOTION_DDOT":0},{"OBJECT_NAME":"BEIDOU-2 IGSO-6","OBJECT_ID":"2016-021A","EPOCH":"2026-04-22T20:32:03.319008","MEAN_MOTION":1.00270364,"ECCENTRICITY":0.00558668,"INCLINATION":60.1522,"RA_OF_ASC_NODE":38.5901,"ARG_OF_PERICENTER":232.0601,"MEAN_ANOMALY":343.5038,"EPHEMERIS_TYPE":0,"CLASSIFICATION_TYPE":"U","NORAD_CAT_ID":41434,"ELEMENT_SET_NO":999,"REV_AT_EPOCH":3692,"BSTAR":0,"MEAN_MOTION_DOT":-1.69e-6,"MEAN_MOTION_DDOT":0},{"OBJECT_NAME":"IRNSS-1G","OBJECT_ID":"2016-027A","EPOCH":"2026-04-25T21:04:13.385280","MEAN_MOTION":1.00276207,"ECCENTRICITY":0.00058808,"INCLINATION":5.0672,"RA_OF_ASC_NODE":98.7029,"ARG_OF_PERICENTER":345.3501,"MEAN_ANOMALY":215.4963,"EPHEMERIS_TYPE":0,"CLASSIFICATION_TYPE":"U","NORAD_CAT_ID":41469,"ELEMENT_SET_NO":999,"REV_AT_EPOCH":3665,"BSTAR":0,"MEAN_MOTION_DOT":-3.42e-6,"MEAN_MOTION_DDOT":0},{"OBJECT_NAME":"JCSAT-2B","OBJECT_ID":"2016-028A","EPOCH":"2026-04-25T21:11:12.714720","MEAN_MOTION":1.00274882,"ECCENTRICITY":0.00013176,"INCLINATION":0.0171,"RA_OF_ASC_NODE":234.3707,"ARG_OF_PERICENTER":173.0526,"MEAN_ANOMALY":278.2828,"EPHEMERIS_TYPE":0,"CLASSIFICATION_TYPE":"U","NORAD_CAT_ID":41471,"ELEMENT_SET_NO":999,"REV_AT_EPOCH":3660,"BSTAR":0,"MEAN_MOTION_DOT":0,"MEAN_MOTION_DDOT":0},{"OBJECT_NAME":"BREEZE-M DEB","OBJECT_ID":"2015-075E","EPOCH":"2026-04-25T00:10:57.082368","MEAN_MOTION":1.05680128,"ECCENTRICITY":0.03193991,"INCLINATION":8.2796,"RA_OF_ASC_NODE":60.1528,"ARG_OF_PERICENTER":173.6772,"MEAN_ANOMALY":186.6959,"EPHEMERIS_TYPE":0,"CLASSIFICATION_TYPE":"U","NORAD_CAT_ID":41544,"ELEMENT_SET_NO":999,"REV_AT_EPOCH":3967,"BSTAR":0,"MEAN_MOTION_DOT":-1.28e-6,"MEAN_MOTION_DDOT":0},{"OBJECT_NAME":"BREEZE-M DEB","OBJECT_ID":"2015-075H","EPOCH":"2026-04-25T09:51:18.508896","MEAN_MOTION":1.03192545,"ECCENTRICITY":0.02662403,"INCLINATION":8.5287,"RA_OF_ASC_NODE":62.4938,"ARG_OF_PERICENTER":138.1456,"MEAN_ANOMALY":223.8782,"EPHEMERIS_TYPE":0,"CLASSIFICATION_TYPE":"U","NORAD_CAT_ID":41547,"ELEMENT_SET_NO":999,"REV_AT_EPOCH":3873,"BSTAR":0,"MEAN_MOTION_DOT":-2.74e-6,"MEAN_MOTION_DDOT":0},{"OBJECT_NAME":"BREEZE-M DEB","OBJECT_ID":"2015-075J","EPOCH":"2026-04-24T20:02:23.758944","MEAN_MOTION":1.02195179,"ECCENTRICITY":0.03691436,"INCLINATION":8.5723,"RA_OF_ASC_NODE":56.4013,"ARG_OF_PERICENTER":134.6989,"MEAN_ANOMALY":228.3109,"EPHEMERIS_TYPE":0,"CLASSIFICATION_TYPE":"U","NORAD_CAT_ID":41548,"ELEMENT_SET_NO":999,"REV_AT_EPOCH":3872,"BSTAR":0,"MEAN_MOTION_DOT":-3.11e-6,"MEAN_MOTION_DDOT":0},{"OBJECT_NAME":"THAICOM 8","OBJECT_ID":"2016-031A","EPOCH":"2026-04-25T22:59:38.461920","MEAN_MOTION":1.00271797,"ECCENTRICITY":0.00042121,"INCLINATION":0.0636,"RA_OF_ASC_NODE":42.1502,"ARG_OF_PERICENTER":345.2983,"MEAN_ANOMALY":249.966,"EPHEMERIS_TYPE":0,"CLASSIFICATION_TYPE":"U","NORAD_CAT_ID":41552,"ELEMENT_SET_NO":999,"REV_AT_EPOCH":3619,"BSTAR":0,"MEAN_MOTION_DOT":-1.35e-6,"MEAN_MOTION_DDOT":0},{"OBJECT_NAME":"INTELSAT 31 (IS-31)","OBJECT_ID":"2016-035A","EPOCH":"2026-04-25T21:42:54.675072","MEAN_MOTION":1.00270975,"ECCENTRICITY":0.00022252,"INCLINATION":0.0111,"RA_OF_ASC_NODE":234.1895,"ARG_OF_PERICENTER":40.3457,"MEAN_ANOMALY":170.0615,"EPHEMERIS_TYPE":0,"CLASSIFICATION_TYPE":"U","NORAD_CAT_ID":41581,"ELEMENT_SET_NO":999,"REV_AT_EPOCH":3615,"BSTAR":0,"MEAN_MOTION_DOT":-1.64e-6,"MEAN_MOTION_DDOT":0},{"OBJECT_NAME":"BREEZE-M R/B","OBJECT_ID":"2016-035B","EPOCH":"2026-04-25T13:36:35.746560","MEAN_MOTION":1.12665337,"ECCENTRICITY":0.79157846,"INCLINATION":31.682,"RA_OF_ASC_NODE":299.87,"ARG_OF_PERICENTER":140.7775,"MEAN_ANOMALY":317.571,"EPHEMERIS_TYPE":0,"CLASSIFICATION_TYPE":"U","NORAD_CAT_ID":41582,"ELEMENT_SET_NO":999,"REV_AT_EPOCH":4064,"BSTAR":0,"MEAN_MOTION_DOT":-2.83e-6,"MEAN_MOTION_DDOT":0},{"OBJECT_NAME":"DELTA 4 R/B","OBJECT_ID":"2016-036B","EPOCH":"2026-04-24T20:48:45.648864","MEAN_MOTION":1.04079469,"ECCENTRICITY":0.02286901,"INCLINATION":5.5613,"RA_OF_ASC_NODE":358.2458,"ARG_OF_PERICENTER":253.5791,"MEAN_ANOMALY":103.7557,"EPHEMERIS_TYPE":0,"CLASSIFICATION_TYPE":"U","NORAD_CAT_ID":41585,"ELEMENT_SET_NO":999,"REV_AT_EPOCH":2517,"BSTAR":0,"MEAN_MOTION_DOT":-1.14e-6,"MEAN_MOTION_DDOT":0},{"OBJECT_NAME":"BEIDOU-2 G7","OBJECT_ID":"2016-037A","EPOCH":"2026-04-25T20:58:43.910976","MEAN_MOTION":1.00265627,"ECCENTRICITY":0.00076755,"INCLINATION":1.5927,"RA_OF_ASC_NODE":68.8025,"ARG_OF_PERICENTER":354.2855,"MEAN_ANOMALY":215.9313,"EPHEMERIS_TYPE":0,"CLASSIFICATION_TYPE":"U","NORAD_CAT_ID":41586,"ELEMENT_SET_NO":999,"REV_AT_EPOCH":636,"BSTAR":0,"MEAN_MOTION_DOT":-3.65e-6,"MEAN_MOTION_DDOT":0},{"OBJECT_NAME":"ABS-2A (MONGOLSAT-1)","OBJECT_ID":"2016-038A","EPOCH":"2026-04-25T21:49:51.759840","MEAN_MOTION":1.00268606,"ECCENTRICITY":0.00017178,"INCLINATION":0.0161,"RA_OF_ASC_NODE":242.0712,"ARG_OF_PERICENTER":92.359,"MEAN_ANOMALY":281.6651,"EPHEMERIS_TYPE":0,"CLASSIFICATION_TYPE":"U","NORAD_CAT_ID":41588,"ELEMENT_SET_NO":999,"REV_AT_EPOCH":3618,"BSTAR":0,"MEAN_MOTION_DOT":0,"MEAN_MOTION_DDOT":0},{"OBJECT_NAME":"EUTELSAT 117 WEST B","OBJECT_ID":"2016-038B","EPOCH":"2026-04-25T21:36:32.785344","MEAN_MOTION":1.00271646,"ECCENTRICITY":3.807e-5,"INCLINATION":0.006,"RA_OF_ASC_NODE":101.7562,"ARG_OF_PERICENTER":194.5803,"MEAN_ANOMALY":124.7207,"EPHEMERIS_TYPE":0,"CLASSIFICATION_TYPE":"U","NORAD_CAT_ID":41589,"ELEMENT_SET_NO":999,"REV_AT_EPOCH":3613,"BSTAR":0,"MEAN_MOTION_DOT":-2.5e-7,"MEAN_MOTION_DDOT":0},{"OBJECT_NAME":"FALCON 9 R/B","OBJECT_ID":"2016-038C","EPOCH":"2026-04-23T15:11:50.214048","MEAN_MOTION":1.45738929,"ECCENTRICITY":0.79654633,"INCLINATION":23.7652,"RA_OF_ASC_NODE":333.5265,"ARG_OF_PERICENTER":289.1157,"MEAN_ANOMALY":6.0051,"EPHEMERIS_TYPE":0,"CLASSIFICATION_TYPE":"U","NORAD_CAT_ID":41590,"ELEMENT_SET_NO":999,"REV_AT_EPOCH":4527,"BSTAR":0.0011786996,"MEAN_MOTION_DOT":5.48e-6,"MEAN_MOTION_DDOT":0},{"OBJECT_NAME":"BRISAT","OBJECT_ID":"2016-039A","EPOCH":"2026-04-25T18:37:38.764704","MEAN_MOTION":1.00271581,"ECCENTRICITY":0.00020796,"INCLINATION":0.0155,"RA_OF_ASC_NODE":257.2999,"ARG_OF_PERICENTER":128.5284,"MEAN_ANOMALY":257.8682,"EPHEMERIS_TYPE":0,"CLASSIFICATION_TYPE":"U","NORAD_CAT_ID":41591,"ELEMENT_SET_NO":999,"REV_AT_EPOCH":3608,"BSTAR":0,"MEAN_MOTION_DOT":-2.1e-6,"MEAN_MOTION_DDOT":0}]
